STARLINK-30925          
1 58406U 23180E   26067.37738643  .00002099  00000+0  85748-4 0  9994
2 58406  43.0035  60.1034 0001347 257.0086 103.0615 15.27588974127302
FLOCK 4G-4              
1 62659U 25009BC  26068.75333732  .00011866  00000+0  45294-3 0  9997
2 62659  97.3994 150.7963 0001598 343.4316  16.6870 15.26803327121323
